IRIDIUM 36 [-]          
1 24967U 97056C   24043.41165100  .00000999  00000+0  33314-3 0  9999
2 24967  86.3982  19.0600 0002255  91.7213 268.4243 14.36624291381738
IRIDIUM 39 [-]          
1 25042U 97069D   24043.56965911  .00001382  00000+0  36845-3 0  9991
2 25042  86.3871  61.2987 0019794 138.3312 221.9404 14.47682111377949
IRIDIUM 38 [-]          
1 25043U 97069E   24043.59769446  .00000840  00000+0  27641-3 0  9992
2 25043  86.3911  79.4397 0000532  14.5142 345.6071 14.37089009375473
IRIDIUM 42 [-]          
1 25077U 97077A   24043.57196713  .00000796  00000+0  27088-3 0  9992
2 25077  86.3917  85.0259 0001545  88.8016 271.3357 14.35385118370795
IRIDIUM 44 [-]          
1 25078U 97077B   24043.58823653  .00000928  00000+0  29327-3 0  9999
2 25078  86.3906  68.2469 0002376 138.2864 221.8516 14.39201605373112
IRIDIUM 45 [-]          
1 25104U 97082A   24043.16981587  .00017938  00000+0  10914-2 0  9990
2 25104  86.3725 281.2441 0169637 337.5365  21.8497 14.98989991377950
IRIDIUM 24 [-]          
1 25105U 97082B   24043.62261489  .00000903  00000+0  27513-3 0  9992
2 25105  86.3894 288.0538 0009452 256.0420 103.9728 14.40979995372544
IRIDIUM 51 [-]          
1 25262U 98018A   24043.17461269  .00020133  00000+0  10422-2 0  9991
2 25262  86.3948 291.4323 0152035 286.3743  72.0823 15.06530220372413
