<?xml version="1.0" encoding="UTF-8"?>
<ndm xmlns:xsi="http://www.w3.org/2001/XMLSchema-instance" xsi:noNamespaceSchemaLocation="https://sanaregistry.org/r/ndmxml_unqualified/ndmxml-2.0.0-master-2.0.xsd">
<omm id="CCSDS_OMM_VERS" version="2.0">
<header><CREATION_DATE/><ORIGINATOR/></header><body><segment><metadata><OBJECT_NAME>IRIDIUM 36 [-]</OBJECT_NAME><OBJECT_ID>1997-056C</OBJECT_ID><CENTER_NAME>EARTH</CENTER_NAME><REF_FRAME>TEME</REF_FRAME><TIME_SYSTEM>UTC</TIME_SYSTEM><MEAN_ELEMENT_THEORY>SGP4</MEAN_ELEMENT_THEORY></metadata><data><meanElements><EPOCH>2024-02-12T09:52:46.646400</EPOCH><MEAN_MOTION>14.36624291</MEAN_MOTION><ECCENTRICITY>.0002255</ECCENTRICITY><INCLINATION>86.3982</INCLINATION><RA_OF_ASC_NODE>19.0600</RA_OF_ASC_NODE><ARG_OF_PERICENTER>91.7213</ARG_OF_PERICENTER><MEAN_ANOMALY>268.4243</MEAN_ANOMALY></meanElements><tleParameters><EPHEMERIS_TYPE>0</EPHEMERIS_TYPE><CLASSIFICATION_TYPE>U</CLASSIFICATION_TYPE><NORAD_CAT_ID>24967</NORAD_CAT_ID><ELEMENT_SET_NO>999</ELEMENT_SET_NO><REV_AT_EPOCH>38173</REV_AT_EPOCH><BSTAR>.33314E-3</BSTAR><MEAN_MOTION_DOT>.999E-5</MEAN_MOTION_DOT><MEAN_MOTION_DDOT>0</MEAN_MOTION_DDOT></tleParameters></data></segment></body></omm>
<omm id="CCSDS_OMM_VERS" version="2.0">
<header><CREATION_DATE/><ORIGINATOR/></header><body><segment><metadata><OBJECT_NAME>IRIDIUM 39 [-]</OBJECT_NAME><OBJECT_ID>1997-069D</OBJECT_ID><CENTER_NAME>EARTH</CENTER_NAME><REF_FRAME>TEME</REF_FRAME><TIME_SYSTEM>UTC</TIME_SYSTEM><MEAN_ELEMENT_THEORY>SGP4</MEAN_ELEMENT_THEORY></metadata><data><meanElements><EPOCH>2024-02-12T13:40:18.547104</EPOCH><MEAN_MOTION>14.47682111</MEAN_MOTION><ECCENTRICITY>.0019794</ECCENTRICITY><INCLINATION>86.3871</INCLINATION><RA_OF_ASC_NODE>61.2987</RA_OF_ASC_NODE><ARG_OF_PERICENTER>138.3312</ARG_OF_PERICENTER><MEAN_ANOMALY>221.9404</MEAN_ANOMALY></meanElements><tleParameters><EPHEMERIS_TYPE>0</EPHEMERIS_TYPE><CLASSIFICATION_TYPE>U</CLASSIFICATION_TYPE><NORAD_CAT_ID>25042</NORAD_CAT_ID><ELEMENT_SET_NO>999</ELEMENT_SET_NO><REV_AT_EPOCH>37794</REV_AT_EPOCH><BSTAR>.36845E-3</BSTAR><MEAN_MOTION_DOT>.1382E-4</MEAN_MOTION_DOT><MEAN_MOTION_DDOT>0</MEAN_MOTION_DDOT></tleParameters></data></segment></body></omm>
<omm id="CCSDS_OMM_VERS" version="2.0">
<header><CREATION_DATE/><ORIGINATOR/></header><body><segment><metadata><OBJECT_NAME>IRIDIUM 38 [-]</OBJECT_NAME><OBJECT_ID>1997-069E</OBJECT_ID><CENTER_NAME>EARTH</CENTER_NAME><REF_FRAME>TEME</REF_FRAME><TIME_SYSTEM>UTC</TIME_SYSTEM><MEAN_ELEMENT_THEORY>SGP4</MEAN_ELEMENT_THEORY></metadata><data><meanElements><EPOCH>2024-02-12T14:20:40.801344</EPOCH><MEAN_MOTION>14.37089009</MEAN_MOTION><ECCENTRICITY>.0000532</ECCENTRICITY><INCLINATION>86.3911</INCLINATION><RA_OF_ASC_NODE>79.4397</RA_OF_ASC_NODE><ARG_OF_PERICENTER>14.5142</ARG_OF_PERICENTER><MEAN_ANOMALY>345.6071</MEAN_ANOMALY></meanElements><tleParameters><EPHEMERIS_TYPE>0</EPHEMERIS_TYPE><CLASSIFICATION_TYPE>U</CLASSIFICATION_TYPE><NORAD_CAT_ID>25043</NORAD_CAT_ID><ELEMENT_SET_NO>999</ELEMENT_SET_NO><REV_AT_EPOCH>37547</REV_AT_EPOCH><BSTAR>.27641E-3</BSTAR><MEAN_MOTION_DOT>.84E-5</MEAN_MOTION_DOT><MEAN_MOTION_DDOT>0</MEAN_MOTION_DDOT></tleParameters></data></segment></body></omm>
<omm id="CCSDS_OMM_VERS" version="2.0">
<header><CREATION_DATE/><ORIGINATOR/></header><body><segment><metadata><OBJECT_NAME>IRIDIUM 42 [-]</OBJECT_NAME><OBJECT_ID>1997-077A</OBJECT_ID><CENTER_NAME>EARTH</CENTER_NAME><REF_FRAME>TEME</REF_FRAME><TIME_SYSTEM>UTC</TIME_SYSTEM><MEAN_ELEMENT_THEORY>SGP4</MEAN_ELEMENT_THEORY></metadata><data><meanElements><EPOCH>2024-02-12T13:43:37.960032</EPOCH><MEAN_MOTION>14.35385118</MEAN_MOTION><ECCENTRICITY>.0001545</ECCENTRICITY><INCLINATION>86.3917</INCLINATION><RA_OF_ASC_NODE>85.0259</RA_OF_ASC_NODE><ARG_OF_PERICENTER>88.8016</ARG_OF_PERICENTER><MEAN_ANOMALY>271.3357</MEAN_ANOMALY></meanElements><tleParameters><EPHEMERIS_TYPE>0</EPHEMERIS_TYPE><CLASSIFICATION_TYPE>U</CLASSIFICATION_TYPE><NORAD_CAT_ID>25077</NORAD_CAT_ID><ELEMENT_SET_NO>999</ELEMENT_SET_NO><REV_AT_EPOCH>37079</REV_AT_EPOCH><BSTAR>.27088E-3</BSTAR><MEAN_MOTION_DOT>.796E-5</MEAN_MOTION_DOT><MEAN_MOTION_DDOT>0</MEAN_MOTION_DDOT></tleParameters></data></segment></body></omm>
<omm id="CCSDS_OMM_VERS" version="2.0">
<header><CREATION_DATE/><ORIGINATOR/></header><body><segment><metadata><OBJECT_NAME>IRIDIUM 44 [-]</OBJECT_NAME><OBJECT_ID>1997-077B</OBJECT_ID><CENTER_NAME>EARTH</CENTER_NAME><REF_FRAME>TEME</REF_FRAME><TIME_SYSTEM>UTC</TIME_SYSTEM><MEAN_ELEMENT_THEORY>SGP4</MEAN_ELEMENT_THEORY></metadata><data><meanElements><EPOCH>2024-02-12T14:07:03.636192</EPOCH><MEAN_MOTION>14.39201605</MEAN_MOTION><ECCENTRICITY>.0002376</ECCENTRICITY><INCLINATION>86.3906</INCLINATION><RA_OF_ASC_NODE>68.2469</RA_OF_ASC_NODE><ARG_OF_PERICENTER>138.2864</ARG_OF_PERICENTER><MEAN_ANOMALY>221.8516</MEAN_ANOMALY></meanElements><tleParameters><EPHEMERIS_TYPE>0</EPHEMERIS_TYPE><CLASSIFICATION_TYPE>U</CLASSIFICATION_TYPE><NORAD_CAT_ID>25078</NORAD_CAT_ID><ELEMENT_SET_NO>999</ELEMENT_SET_NO><REV_AT_EPOCH>37311</REV_AT_EPOCH><BSTAR>.29327E-3</BSTAR><MEAN_MOTION_DOT>.928E-5</MEAN_MOTION_DOT><MEAN_MOTION_DDOT>0</MEAN_MOTION_DDOT></tleParameters></data></segment></body></omm>
<omm id="CCSDS_OMM_VERS" version="2.0">
<header><CREATION_DATE/><ORIGINATOR/></header><body><segment><metadata><OBJECT_NAME>IRIDIUM 45 [-]</OBJECT_NAME><OBJECT_ID>1997-082A</OBJECT_ID><CENTER_NAME>EARTH</CENTER_NAME><REF_FRAME>TEME</REF_FRAME><TIME_SYSTEM>UTC</TIME_SYSTEM><MEAN_ELEMENT_THEORY>SGP4</MEAN_ELEMENT_THEORY></metadata><data><meanElements><EPOCH>2024-02-12T04:04:32.091168</EPOCH><MEAN_MOTION>14.98989991</MEAN_MOTION><ECCENTRICITY>.0169637</ECCENTRICITY><INCLINATION>86.3725</INCLINATION><RA_OF_ASC_NODE>281.2441</RA_OF_ASC_NODE><ARG_OF_PERICENTER>337.5365</ARG_OF_PERICENTER><MEAN_ANOMALY>21.8497</MEAN_ANOMALY></meanElements><tleParameters><EPHEMERIS_TYPE>0</EPHEMERIS_TYPE><CLASSIFICATION_TYPE>U</CLASSIFICATION_TYPE><NORAD_CAT_ID>25104</NORAD_CAT_ID><ELEMENT_SET_NO>999</ELEMENT_SET_NO><REV_AT_EPOCH>37795</REV_AT_EPOCH><BSTAR>.10914E-2</BSTAR><MEAN_MOTION_DOT>.17938E-3</MEAN_MOTION_DOT><MEAN_MOTION_DDOT>0</MEAN_MOTION_DDOT></tleParameters></data></segment></body></omm>
<omm id="CCSDS_OMM_VERS" version="2.0">
<header><CREATION_DATE/><ORIGINATOR/></header><body><segment><metadata><OBJECT_NAME>IRIDIUM 24 [-]</OBJECT_NAME><OBJECT_ID>1997-082B</OBJECT_ID><CENTER_NAME>EARTH</CENTER_NAME><REF_FRAME>TEME</REF_FRAME><TIME_SYSTEM>UTC</TIME_SYSTEM><MEAN_ELEMENT_THEORY>SGP4</MEAN_ELEMENT_THEORY></metadata><data><meanElements><EPOCH>2024-02-12T14:56:33.926496</EPOCH><MEAN_MOTION>14.40979995</MEAN_MOTION><ECCENTRICITY>.0009452</ECCENTRICITY><INCLINATION>86.3894</INCLINATION><RA_OF_ASC_NODE>288.0538</RA_OF_ASC_NODE><ARG_OF_PERICENTER>256.0420</ARG_OF_PERICENTER><MEAN_ANOMALY>103.9728</MEAN_ANOMALY></meanElements><tleParameters><EPHEMERIS_TYPE>0</EPHEMERIS_TYPE><CLASSIFICATION_TYPE>U</CLASSIFICATION_TYPE><NORAD_CAT_ID>25105</NORAD_CAT_ID><ELEMENT_SET_NO>999</ELEMENT_SET_NO><REV_AT_EPOCH>37254</REV_AT_EPOCH><BSTAR>.27513E-3</BSTAR><MEAN_MOTION_DOT>.903E-5</MEAN_MOTION_DOT><MEAN_MOTION_DDOT>0</MEAN_MOTION_DDOT></tleParameters></data></segment></body></omm>
<omm id="CCSDS_OMM_VERS" version="2.0">
<header><CREATION_DATE/><ORIGINATOR/></header><body><segment><metadata><OBJECT_NAME>IRIDIUM 51 [-]</OBJECT_NAME><OBJECT_ID>1998-018A</OBJECT_ID><CENTER_NAME>EARTH</CENTER_NAME><REF_FRAME>TEME</REF_FRAME><TIME_SYSTEM>UTC</TIME_SYSTEM><MEAN_ELEMENT_THEORY>SGP4</MEAN_ELEMENT_THEORY></metadata><data><meanElements><EPOCH>2024-02-12T04:11:26.536416</EPOCH><MEAN_MOTION>15.06530220</MEAN_MOTION><ECCENTRICITY>.0152035</ECCENTRICITY><INCLINATION>86.3948</INCLINATION><RA_OF_ASC_NODE>291.4323</RA_OF_ASC_NODE><ARG_OF_PERICENTER>286.3743</ARG_OF_PERICENTER><MEAN_ANOMALY>72.0823</MEAN_ANOMALY></meanElements><tleParameters><EPHEMERIS_TYPE>0</EPHEMERIS_TYPE><CLASSIFICATION_TYPE>U</CLASSIFICATION_TYPE><NORAD_CAT_ID>25262</NORAD_CAT_ID><ELEMENT_SET_NO>999</ELEMENT_SET_NO><REV_AT_EPOCH>37241</REV_AT_EPOCH><BSTAR>.10422E-2</BSTAR><MEAN_MOTION_DOT>.20133E-3</MEAN_MOTION_DOT><MEAN_MOTION_DDOT>0</MEAN_MOTION_DDOT></tleParameters></data></segment></body></omm>

</ndm>
